0 CZ-4 DEB
1 26207U 99057CV  13281.90557909  .00002004  00000-0  56811-3 0  3653
2 26207 098.4835 242.9307 0120856 222.7931 201.2272 14.42428839709828
0 CZ-4 DEB
1 26207U 99057CV  13283.37941924  .00001801  00000-0  51198-3 0  3668
2 26207 098.4836 244.3968 0120951 218.3385 294.5166 14.42436229710032
0 CZ-4 DEB
1 26207U 99057CV  13285.85318378  .00001991  00000-0  56420-3 0  3689
2 26207 098.4830 246.8575 0120940 210.8549 180.2648 14.42442282710395
0 CZ-4 DEB
1 26207U 99057CV  13286.89944167  .00002352  00000-0  66408-3 0  3695
2 26207 098.4833 247.8986 0121003 207.6856 213.2962 14.42445052710542
0 CZ-4 DEB
1 26207U 99057CV  13288.14900616  .00003462  00000-0  97047-3 0  3704
2 26207 098.4839 249.1418 0121084 203.9145 222.0646 14.42454043710729
0 CZ-4 DEB
1 26207U 99057CV  13289.41696248  .00002850  00000-0  80106-3 0  3717
2 26207 098.4843 250.4033 0121155 200.0738 326.3910 14.42460739710908
0 CZ-4 DEB
1 26207U 99057CV  13290.78532273  .00002790  00000-0  78433-3 0  3720
2 26207 098.4846 251.7648 0121216 195.9098 232.1520 14.42468273711101
0 CZ-4 DEB
1 26207U 99057CV  13291.82482817  .00002485  00000-0  69985-3 0  3738
2 26207 098.4850 252.7989 0121312 192.7901 230.1830 14.42471708711255
0 CZ-4 DEB
1 26207U 99057CV  13293.14319625  .00002870  00000-0  80597-3 0  3742
2 26207 098.4854 254.1108 0121389 188.7999 236.3765 14.42475910711449
0 CZ-4 DEB
1 26207U 99057CV  13294.87021758  .00003203  00000-0  89773-3 0  3757
2 26207 098.4857 255.8294 0121463 183.5890 204.6968 14.42485708711698
